[{"OBJECT_NAME":"SITRO-AIS 8 (ANOKHIN)","OBJECT_ID":"2023-091AD","EPOCH":"2026-03-09T23:44:40.058592","MEAN_MOTION":15.29359179,"ECCENTRICITY":0.0012509,"INCLINATION":97.5169,"RA_OF_ASC_NODE":133.2823,"ARG_OF_PERICENTER":92.0171,"MEAN_ANOMALY":268.2501,"EPHEMERIS_TYPE":0,"CLASSIFICATION_TYPE":"U","NORAD_CAT_ID":57193,"ELEMENT_SET_NO":999,"REV_AT_EPOCH":14927,"BSTAR":0.00064982524,"MEAN_MOTION_DOT":0.00018494,"MEAN_MOTION_DDOT":0},{"OBJECT_NAME":"STARLINK-35205","OBJECT_ID":"2025-212D","EPOCH":"2026-03-09T23:20:07.234080","MEAN_MOTION":15.30173975,"ECCENTRICITY":0.00015403,"INCLINATION":53.1608,"RA_OF_ASC_NODE":344.588,"ARG_OF_PERICENTER":151.428,"MEAN_ANOMALY":208.6806,"EPHEMERIS_TYPE":0,"CLASSIFICATION_TYPE":"U","NORAD_CAT_ID":65679,"ELEMENT_SET_NO":999,"REV_AT_EPOCH":2723,"BSTAR":0.001059404,"MEAN_MOTION_DOT":0.00031124,"MEAN_MOTION_DDOT":0}]
